ORBCOMM FM37 [-]        
1 33064U 08031E   23317.88453810  .00002023  00000+0  32461-3 0  9996
2 33064  48.4404 217.1286 0005629  47.6221  69.6942 14.75412605828091
ORBCOMM FM40 [-]        
1 33065U 08031F   23318.44310538  .00002096  00000+0  32688-3 0  9990
2 33065  48.4426 205.4332 0006938  59.4965 110.7332 14.76511749828639
VESSELSAT 1 [-]         
1 37840U 11058C   23318.44604779  .00000413  00000+0  81212-4 0  9990
2 37840  19.9636   7.1486 0013535 280.2048  79.6830 14.11083168624407
ORBCOMM FM109 [+]       
1 40086U 14040A   23318.06088276  .00001057  00000+0  27509-3 0  9999
2 40086  47.0039 236.1633 0001544 179.5545 180.5342 14.56087807496432
ORBCOMM FM107 [+]       
1 40087U 14040B   23317.88918952  .00001167  00000+0  29974-3 0  9992
2 40087  47.0050 237.9083 0000801 126.5878 233.5081 14.56094859496366
ORBCOMM FM106 [-]       
1 40088U 14040C   23318.45290763  .00001500  00000+0  30196-3 0  9999
2 40088  47.0591 101.3688 0018990 254.1224 105.7572 14.66231473498377
ORBCOMM FM111 [-]       
1 40089U 14040D   23317.99483751  .00002742  00000+0  37878-3 0  9992
2 40089  47.0062  25.2316 0034302 300.6668  59.0847 14.80374061503951
ORBCOMM FM104 [-]       
1 40090U 14040E   23318.16209147  .00000942  00000+0  25703-3 0  9993
2 40090  47.0060 263.5853 0016626  71.4579 288.8110 14.54629108496072
